{"type": "FeatureCollection", "features": [ {"type": "Feature", "properties": {"norad_id": 35284, "name": "COSMOS 2251 DEB", "group": "cosmos-2251-debris", "lat": 26.52897961587629, "lon": -74.7060223020461, "alt_km": 752.8977363538725, "timestamp": "2025-12-05T20:43:02.449538+00:00", "meta": {"OBJECT_NAME": "COSMOS 2251 DEB", "OBJECT_ID": "1993-036AJN", "EPOCH": "2025-12-04T04:49:40.154016", "MEAN_MOTION": 14.38302893, "ECCENTRICITY": 0.0016445, "INCLINATION": 74.0489, "RA_OF_ASC_NODE": 280.1443, "ARG_OF_PERICENTER": 358.2781, "MEAN_ANOMALY": 66.8763, "EPHEMERIS_TYPE": 0, "CLASSIFICATION_TYPE": "U", "NORAD_CAT_ID": 35284, "ELEMENT_SET_NO": 999, "REV_AT_EPOCH": 65403, "BSTAR": 0.00035677, "MEAN_MOTION_DOT": 1.061e-05, "MEAN_MOTION_DDOT": 0}, "tle": {"line1": "1 35284U 93036AJN 25338.20115919  .00001061  00000+0  35677-3 0  9990", "line2": "2 35284  74.0489 280.1443 0016445 358.2781  66.8763 14.38302893654037"}}, "geometry": {"type": "Point", "coordinates": [-74.7060223020461, 26.52897961587629]}}, {"type": "Feature", "properties": {"norad_id": 35287, "name": "COSMOS 2251 DEB", "group": "cosmos-2251-debris", "lat": -65.50831587321376, "lon": 147.72117936420247, "alt_km": 786.2847040770748, "timestamp": "2025-12-05T20:43:02.449548+00:00", "meta": {"OBJECT_NAME": "COSMOS 2251 DEB", "OBJECT_ID": "1993-036AJR", "EPOCH": "2025-12-03T08:05:46.925952", "MEAN_MOTION": 14.3636224, "ECCENTRICITY": 0.0017175, "INCLINATION": 74.0299, "RA_OF_ASC_NODE": 293.4128, "ARG_OF_PERICENTER": 32.768, "MEAN_ANOMALY": 122.7025, "EPHEMERIS_TYPE": 0, "CLASSIFICATION_TYPE": "U", "NORAD_CAT_ID": 35287, "ELEMENT_SET_NO": 999, "REV_AT_EPOCH": 86757, "BSTAR": 0.00022522, "MEAN_MOTION_DOT": 6.34e-06, "MEAN_MOTION_DDOT": 0}, "tle": {"line1": "1 35287U 93036AJR 25337.33734868  .00000634  00000+0  22522-3 0  9996", "line2": "2 35287  74.0299 293.4128 0017175  32.7680 122.7025 14.36362240867577"}}, "geometry": {"type": "Point", "coordinates": [147.72117936420247, -65.50831587321376]}}, {"type": "Feature", "properties": {"norad_id": 35288, "name": "COSMOS 2251 DEB", "group": "cosmos-2251-debris", "lat": 41.89347006860503, "lon": 43.44549387201753, "alt_km": 693.9589365280308, "timestamp": "2025-12-05T20:43:02.449572+00:00", "meta": {"OBJECT_NAME": "COSMOS 2251 DEB", "OBJECT_ID": "1993-036AJS", "EPOCH": "2025-12-04T10:06:26.911584", "MEAN_MOTION": 14.65316006, "ECCENTRICITY": 0.0039578, "INCLINATION": 73.9514, "RA_OF_ASC_NODE": 31.2696, "ARG_OF_PERICENTER": 265.8012, "MEAN_ANOMALY": 93.8632, "EPHEMERIS_TYPE": 0, "CLASSIFICATION_TYPE": "U", "NORAD_CAT_ID": 35288, "ELEMENT_SET_NO": 999, "REV_AT_EPOCH": 87756, "BSTAR": 0.0026838, "MEAN_MOTION_DOT": 0.00014651, "MEAN_MOTION_DDOT": 0}, "tle": {"line1": "1 35288U 93036AJS 25338.42114481  .00014651  00000+0  26838-2 0  9998", "line2": "2 35288  73.9514  31.2696 0039578 265.8012  93.8632 14.65316006877566"}}, "geometry": {"type": "Point", "coordinates": [43.44549387201753, 41.89347006860503]}}, {"type": "Feature", "properties": {"norad_id": 35290, "name": "COSMOS 2251 DEB", "group": "cosmos-2251-debris", "lat": -41.90016229689944, "lon": 58.09861824348675, "alt_km": 636.8371343530034, "timestamp": "2025-12-05T20:43:02.449583+00:00", "meta": {"OBJECT_NAME": "COSMOS 2251 DEB", "OBJECT_ID": "1993-036AJU", "EPOCH": "2025-12-01T06:35:33.142560", "MEAN_MOTION": 14.79807104, "ECCENTRICITY": 0.00037082, "INCLINATION": 74.0051, "RA_OF_ASC_NODE": 82.0624, "ARG_OF_PERICENTER": 206.8807, "MEAN_ANOMALY": 153.2178, "EPHEMERIS_TYPE": 0, "CLASSIFICATION_TYPE": "U", "NORAD_CAT_ID": 35290, "ELEMENT_SET_NO": 999, "REV_AT_EPOCH": 87788, "BSTAR": 0.002855926, "MEAN_MOTION_DOT": 0.00021548, "MEAN_MOTION_DDOT": 0}, "tle": {"line1": "1 35290U 93036AJU 25335.27468915  .00021548  00000+0  28559-2 0  9990", "line2": "2 35290  74.0051  82.0624 0003708 206.8807 153.2178 14.79807104877885"}}, "geometry": {"type": "Point", "coordinates": [58.09861824348675, -41.90016229689944]}}, {"type": "Feature", "properties": {"norad_id": 35432, "name": "COSMOS 2251 DEB", "group": "cosmos-2251-debris", "lat": -54.8367924770427, "lon": -125.97815527465596, "alt_km": 512.6998643781244, "timestamp": "2025-12-05T20:43:02.449592+00:00", "meta": {"OBJECT_NAME": "COSMOS 2251 DEB", "OBJECT_ID": "1993-036AKA", "EPOCH": "2025-12-04T13:40:11.641152", "MEAN_MOTION": 15.20181505, "ECCENTRICITY": 0.0012071, "INCLINATION": 74.0219, "RA_OF_ASC_NODE": 32.7366, "ARG_OF_PERICENTER": 351.7672, "MEAN_ANOMALY": 8.3325, "EPHEMERIS_TYPE": 0, "CLASSIFICATION_TYPE": "U", "NORAD_CAT_ID": 35432, "ELEMENT_SET_NO": 999, "REV_AT_EPOCH": 87379, "BSTAR": 0.012322, "MEAN_MOTION_DOT": 0.00277665, "MEAN_MOTION_DDOT": 0}, "tle": {"line1": "1 35432U 93036AKA 25338.56957918  .00277665  00000+0  12322-1 0  9992", "line2": "2 35432  74.0219  32.7366 0012071 351.7672   8.3325 15.20181505873794"}}, "geometry": {"type": "Point", "coordinates": [-125.97815527465596, -54.8367924770427]}}, {"type": "Feature", "properties": {"norad_id": 35433, "name": "COSMOS 2251 DEB", "group": "cosmos-2251-debris", "lat": 47.03103496357938, "lon": 8.94548240869395, "alt_km": 753.1712575592101, "timestamp": "2025-12-05T20:43:02.449603+00:00", "meta": {"OBJECT_NAME": "COSMOS 2251 DEB", "OBJECT_ID": "1993-036AKB", "EPOCH": "2025-12-04T18:14:48.155712", "MEAN_MOTION": 14.34727906, "ECCENTRICITY": 0.00255548, "INCLINATION": 74.0347, "RA_OF_ASC_NODE": 353.0673, "ARG_OF_PERICENTER": 50.771, "MEAN_ANOMALY": 64.4133, "EPHEMERIS_TYPE": 0, "CLASSIFICATION_TYPE": "U", "NORAD_CAT_ID": 35433, "ELEMENT_SET_NO": 999, "REV_AT_EPOCH": 86466, "BSTAR": 0.00043822497, "MEAN_MOTION_DOT": 1.22e-05, "MEAN_MOTION_DDOT": 0}, "tle": {"line1": "1 35433U 93036AKB 25338.76027958  .00001220  00000+0  43822-3 0  9990", "line2": "2 35433  74.0347 353.0673 0025554  50.7710  64.4133 14.34727906864667"}}, "geometry": {"type": "Point", "coordinates": [8.94548240869395, 47.03103496357938]}}, {"type": "Feature", "properties": {"norad_id": 35434, "name": "COSMOS 2251 DEB", "group": "cosmos-2251-debris", "lat": -7.71660866429443, "lon": 48.258401846785404, "alt_km": 831.15681498709, "timestamp": "2025-12-05T20:43:02.449613+00:00", "meta": {"OBJECT_NAME": "COSMOS 2251 DEB", "OBJECT_ID": "1993-036AKC", "EPOCH": "2025-12-05T01:18:18.525312", "MEAN_MOTION": 14.2565165, "ECCENTRICITY": 0.0087511, "INCLINATION": 74.0414, "RA_OF_ASC_NODE": 227.4955, "ARG_OF_PERICENTER": 299.8611, "MEAN_ANOMALY": 59.386, "EPHEMERIS_TYPE": 0, "CLASSIFICATION_TYPE": "U", "NORAD_CAT_ID": 35434, "ELEMENT_SET_NO": 999, "REV_AT_EPOCH": 86008, "BSTAR": 0.0013097778, "MEAN_MOTION_DOT": 3.207e-05, "MEAN_MOTION_DDOT": 0}, "tle": {"line1": "1 35434U 93036AKC 25339.05438108  .00003207  00000+0  13098-2 0  9995", "line2": "2 35434  74.0414 227.4955 0087511 299.8611  59.3860 14.25651650860081"}}, "geometry": {"type": "Point", "coordinates": [48.258401846785404, -7.71660866429443]}}, {"type": "Feature", "properties": {"norad_id": 35435, "name": "COSMOS 2251 DEB", "group": "cosmos-2251-debris", "lat": 18.847646771110817, "lon": -68.02163720379669, "alt_km": 631.0080406226562, "timestamp": "2025-12-05T20:43:02.449623+00:00", "meta": {"OBJECT_NAME": "COSMOS 2251 DEB", "OBJECT_ID": "1993-036AKD", "EPOCH": "2025-12-05T02:38:39.255648", "MEAN_MOTION": 14.78072342, "ECCENTRICITY": 0.00091016, "INCLINATION": 74.0102, "RA_OF_ASC_NODE": 119.0761, "ARG_OF_PERICENTER": 211.2048, "MEAN_ANOMALY": 263.7282, "EPHEMERIS_TYPE": 0, "CLASSIFICATION_TYPE": "U", "NORAD_CAT_ID": 35435, "ELEMENT_SET_NO": 999, "REV_AT_EPOCH": 87426, "BSTAR": 0.0046321505, "MEAN_MOTION_DOT": 0.00033645, "MEAN_MOTION_DDOT": 0}, "tle": {"line1": "1 35435U 93036AKD 25339.11017657  .00033645  00000+0  46322-2 0  9990", "line2": "2 35435  74.0102 119.0761 0009101 211.2048 263.7282 14.78072342874265"}}, "geometry": {"type": "Point", "coordinates": [-68.02163720379669, 18.847646771110817]}}, {"type": "Feature", "properties": {"norad_id": 35439, "name": "COSMOS 2251 DEB", "group": "cosmos-2251-debris", "lat": 44.5489281992863, "lon": 162.9079480102268, "alt_km": 909.3671672354021, "timestamp": "2025-12-05T20:43:02.449633+00:00", "meta": {"OBJECT_NAME": "COSMOS 2251 DEB", "OBJECT_ID": "1993-036AKH", "EPOCH": "2025-12-03T18:34:55.041888", "MEAN_MOTION": 13.92746619, "ECCENTRICITY": 0.02415919, "INCLINATION": 74.0184, "RA_OF_ASC_NODE": 150.1, "ARG_OF_PERICENTER": 321.3614, "MEAN_ANOMALY": 52.9167, "EPHEMERIS_TYPE": 0, "CLASSIFICATION_TYPE": "U", "NORAD_CAT_ID": 35439, "ELEMENT_SET_NO": 999, "REV_AT_EPOCH": 83836, "BSTAR": 0.0019584258, "MEAN_MOTION_DOT": 3.195e-05, "MEAN_MOTION_DDOT": 0}, "tle": {"line1": "1 35439U 93036AKH 25337.77424817  .00003195  00000+0  19584-2 0  9991", "line2": "2 35439  74.0184 150.1000 0241591 321.3614  52.9167 13.92746619838365"}}, "geometry": {"type": "Point", "coordinates": [162.9079480102268, 44.5489281992863]}}, {"type": "Feature", "properties": {"norad_id": 35440, "name": "COSMOS 2251 DEB", "group": "cosmos-2251-debris", "lat": 34.18940271619025, "lon": -127.82025853637944, "alt_km": 621.4298888051135, "timestamp": "2025-12-05T20:43:02.449643+00:00", "meta": {"OBJECT_NAME": "COSMOS 2251 DEB", "OBJECT_ID": "1993-036AKJ", "EPOCH": "2025-12-04T00:25:11.600832", "MEAN_MOTION": 14.68734875, "ECCENTRICITY": 0.0068957, "INCLINATION": 74.0159, "RA_OF_ASC_NODE": 224.5259, "ARG_OF_PERICENTER": 7.4237, "MEAN_ANOMALY": 352.7936, "EPHEMERIS_TYPE": 0, "CLASSIFICATION_TYPE": "U", "NORAD_CAT_ID": 35440, "ELEMENT_SET_NO": 999, "REV_AT_EPOCH": 68637, "BSTAR": 0.0010432053, "MEAN_MOTION_DOT": 6.276e-05, "MEAN_MOTION_DDOT": 0}, "tle": {"line1": "1 35440U 93036AKJ 25338.01749538  .00006276  00000+0  10432-2 0  9997", "line2": "2 35440  74.0159 224.5259 0068957   7.4237 352.7936 14.68734875686379"}}, "geometry": {"type": "Point", "coordinates": [-127.82025853637944, 34.18940271619025]}}]}